[{"OBJECT_NAME":"STARLINK-3782","OBJECT_ID":"2022-041N","EPOCH":"2026-03-09T12:32:23.871264","MEAN_MOTION":15.08835464,"ECCENTRICITY":0.0001478,"INCLINATION":53.2159,"RA_OF_ASC_NODE":100.255,"ARG_OF_PERICENTER":76.1639,"MEAN_ANOMALY":283.9517,"EPHEMERIS_TYPE":0,"CLASSIFICATION_TYPE":"U","NORAD_CAT_ID":52273,"ELEMENT_SET_NO":999,"REV_AT_EPOCH":21447,"BSTAR":-4.3246e-6,"MEAN_MOTION_DOT":-3.57e-6,"MEAN_MOTION_DDOT":0},{"OBJECT_NAME":"CZ-6A DEB","OBJECT_ID":"2024-140FD","EPOCH":"2026-03-09T14:27:44.906112","MEAN_MOTION":14.99694865,"ECCENTRICITY":0.0039811,"INCLINATION":89.0027,"RA_OF_ASC_NODE":280.8171,"ARG_OF_PERICENTER":188.2594,"MEAN_ANOMALY":171.7991,"EPHEMERIS_TYPE":0,"CLASSIFICATION_TYPE":"U","NORAD_CAT_ID":60778,"ELEMENT_SET_NO":999,"REV_AT_EPOCH":8450,"BSTAR":0.0048584,"MEAN_MOTION_DOT":0.00061368,"MEAN_MOTION_DDOT":0}]
